OBJECT_NAME,OBJECT_ID,EPOCH,MEAN_MOTION,ECCENTRICITY,INCLINATION,RA_OF_ASC_NODE,ARG_OF_PERICENTER,MEAN_ANOMALY,EPHEMERIS_TYPE,CLASSIFICATION_TYPE,NORAD_CAT_ID,ELEMENT_SET_NO,REV_AT_EPOCH,BSTAR,MEAN_MOTION_DOT,MEAN_MOTION_DDOT
STARLINK-31691,2024-097X,2025-10-27T07:33:52.542144,15.27585168,.0000975,43.0022,307.1747,263.2090,96.8651,0,U,59856,999,8152,.50207E-4,.112E-4,0
STARLINK-31569,2024-097Y,2025-10-27T00:34:56.273952,15.27546806,.00007276,43.0023,309.2992,234.6792,125.3992,0,U,59857,999,8147,-.18260381E-3,-.5278E-4,0
STARLINK-31654,2024-098A,2025-10-27T01:12:26.216352,15.27573277,.00006704,43.0001,305.2923,285.7783,74.2995,0,U,59858,999,8148,.11231729E-4,.47E-6,0
STARLINK-31442,2024-098B,2025-10-27T23:21:41.613984,15.27576028,.00002819,43.0043,311.4079,261.8303,98.2516,0,U,59859,999,8150,.38362726E-4,.794E-5,0
STARLINK-31651,2024-098C,2025-10-27T02:06:32.793984,15.27570207,.00007025,42.9995,312.4960,288.3986,71.6789,0,U,59860,999,8141,-.60102617E-4,-.1915E-4,0
STARLINK-31584,2024-098E,2025-10-27T08:08:22.225632,15.27582106,.00006117,43.0015,310.9442,231.5432,128.5365,0,U,59862,999,8145,-.13222855E-4,-.626E-5,0
STARLINK-31950,2024-098F,2025-10-27T02:17:39.206688,15.27574933,.00011344,43.0021,312.5562,255.9923,104.0802,0,U,59863,999,8141,.27583508E-4,.497E-5,0
STARLINK-31931,2024-098G,2025-10-27T02:43:34.801536,15.27421169,.00003907,43.0025,312.6852,309.9556,50.1262,0,U,59864,999,8141,.11268179E-2,.30725E-3,0
STARLINK-31938,2024-098H,2025-10-27T22:00:58.133664,15.27589142,.00012908,43.0014,307.5358,256.5533,103.5175,0,U,59865,999,8154,-.14234707E-3,-.4178E-4,0
STARLINK-31941,2024-098J,2025-10-27T00:24:41.579424,15.27567596,.00017265,43.0023,295.1574,276.3286,83.7369,0,U,59866,999,8160,.7505299E-5,-.56E-6,0
STARLINK-31952,2024-098K,2025-10-27T02:23:12.184512,15.27576870,.00011216,43.0021,312.5834,246.6344,113.4390,0,U,59867,999,8141,.45743872E-4,.997E-5,0
STARLINK-31921,2024-098L,2025-10-27T07:34:52.286880,15.27615628,.00013705,43.0044,270.8644,250.2307,109.8397,0,U,59868,999,8190,-.26025763E-3,-.7425E-4,0
STARLINK-31760,2024-098M,2025-10-27T07:20:25.661184,15.27618713,.0001298,43.0036,311.5547,275.2303,84.8401,0,U,59869,999,8144,.18903E-3,.4949E-4,0
STARLINK-31945,2024-098N,2025-10-27T07:19:05.253024,15.27587421,.0000877,43.0008,307.2166,241.1601,118.9163,0,U,59870,999,8149,.12683E-3,.323E-4,0
STARLINK-31937,2024-098P,2025-10-27T06:46:42.504096,15.27581386,.0001417,43.0063,304.4564,263.2069,96.8622,0,U,59871,999,8152,.23651E-4,.389E-5,0
STARLINK-31940,2024-098R,2025-10-27T07:08:42.072288,15.27582980,.0000979,43.0033,303.7074,265.6160,94.4579,0,U,59873,999,8153,.14404E-4,.134E-5,0
STARLINK-31933,2024-098S,2025-10-27T08:17:37.147776,15.27580064,.00016131,43.0049,310.9907,272.0469,88.0198,0,U,59874,999,8145,-.43830867E-4,-.1468E-4,0
STARLINK-31936,2024-098T,2025-10-27T22:25:28.691904,15.27571618,.00014781,43.0037,275.3889,270.3019,89.7664,0,U,59875,999,8190,.5753603E-4,.1321E-4,0
STARLINK-31935,2024-098U,2025-10-27T07:14:54.972960,15.27585387,.0001278,43.0049,311.5240,255.0812,104.9899,0,U,59876,999,8144,.38866E-4,.808E-5,0
STARLINK-31934,2024-098V,2025-10-27T09:30:17.044704,15.27561879,.00016517,43.0032,307.0421,282.8861,77.1806,0,U,59877,999,8150,.64044179E-4,.15E-4,0
STARLINK-31943,2024-098W,2025-10-27T07:53:05.330688,15.27559711,.000076,43.0068,315.1859,215.9093,144.1707,0,U,59878,999,8075,.10629E-3,.2662E-4,0
STARLINK-31926,2024-098X,2025-10-27T07:22:28.338816,15.27573865,.0001197,43.0014,300.7654,283.8699,76.2020,0,U,59879,999,8156,-.65699E-4,-.2069E-4,0
STARLINK-31919,2024-098Y,2025-10-27T00:37:56.789472,15.27579294,.00008748,43.0033,312.8936,284.9342,75.1413,0,U,59880,999,8140,.38045341E-4,.785E-5,0
STARLINK-31974,2024-100A,2025-10-27T16:08:10.220928,15.27577203,.00012743,43.0016,156.6053,257.1040,102.9670,0,U,59885,999,8071,.93188507E-4,.2303E-4,0
STARLINK-31975,2024-100B,2025-10-27T00:30:18.666432,15.27567046,.00015162,43.0007,160.3159,269.2939,90.7739,0,U,59886,999,8071,.97711464E-4,.2427E-4,0
STARLINK-31976,2024-100C,2025-10-27T07:38:01.408704,15.27589784,.0001503,43.0000,162.5398,280.2361,79.8322,0,U,59887,999,8071,.13173249E-3,.3366E-4,0
STARLINK-31965,2024-100D,2025-10-27T14:54:22.389408,15.27603806,.00011766,42.9979,157.0776,278.6677,81.4041,0,U,59888,999,8070,.12638712E-2,.34706E-3,0
STARLINK-31969,2024-100E,2025-10-27T00:23:37.059360,15.27574640,.00010588,43.0001,156.8249,22.4448,337.6450,0,U,59889,999,8075,.27573791E-3,.7332E-4,0
STARLINK-31951,2024-100F,2025-10-27T15:45:58.142880,15.27577692,.00009993,43.0035,156.4931,281.3281,78.7458,0,U,59890,999,8071,.9599288E-5,.2E-7,0
STARLINK-31949,2024-100G,2025-10-27T16:02:35.401056,15.27590607,.00010841,43.0019,156.5702,262.2301,97.8428,0,U,59891,999,8071,.61406421E-4,.1429E-4,0
