STARLINK-31691          
1 59856U 24097X   25300.31519146  .00001120  00000+0  50207-4 0  9996
2 59856  43.0022 307.1747 0000975 263.2090  96.8651 15.27585168 81527
STARLINK-31569          
1 59857U 24097Y   25300.02426243 -.00005278  00000+0 -18260-3 0  9992
2 59857  43.0023 309.2992 0000727 234.6792 125.3992 15.27546806 81476
STARLINK-31654          
1 59858U 24098A   25300.05030343  .00000047  00000+0  11232-4 0  9999
2 59858  43.0001 305.2923 0000670 285.7783  74.2995 15.27573277 81485
STARLINK-31442          
1 59859U 24098B   25300.97339831  .00000794  00000+0  38363-4 0  9998
2 59859  43.0043 311.4079 0000281 261.8303  98.2516 15.27576028 81509
STARLINK-31651          
1 59860U 24098C   25300.08787956 -.00001915  00000+0 -60103-4 0  9992
2 59860  42.9995 312.4960 0000702 288.3986  71.6789 15.27570207 81414
STARLINK-31584          
1 59862U 24098E   25300.33914613 -.00000626  00000+0 -13223-4 0  9993
2 59862  43.0015 310.9442 0000611 231.5432 128.5365 15.27582106 81451
STARLINK-31950          
1 59863U 24098F   25300.09559267  .00000497  00000+0  27584-4 0  9996
2 59863  43.0021 312.5562 0001134 255.9923 104.0802 15.27574933 81416
STARLINK-31931          
1 59864U 24098G   25300.11359724  .00030725  00000+0  11268-2 0  9993
2 59864  43.0025 312.6852 0000390 309.9556  50.1262 15.27421169 81412
STARLINK-31938          
1 59865U 24098H   25300.91733951 -.00004178  00000+0 -14235-3 0  9993
2 59865  43.0014 307.5358 0001290 256.5533 103.5175 15.27589142 81543
STARLINK-31941          
1 59866U 24098J   25300.01714791 -.00000056  00000+0  75053-5 0  9993
2 59866  43.0023 295.1574 0001726 276.3286  83.7369 15.27567596 81605
STARLINK-31952          
1 59867U 24098K   25300.09944658  .00000997  00000+0  45744-4 0  9995
2 59867  43.0021 312.5834 0001121 246.6344 113.4390 15.27576870 81410
STARLINK-31921          
1 59868U 24098L   25300.31588295 -.00007425  00000+0 -26026-3 0  9998
2 59868  43.0044 270.8644 0001370 250.2307 109.8397 15.27615628 81902
STARLINK-31760          
1 59869U 24098M   25300.30585256  .00004949  00000+0  18903-3 0  9993
2 59869  43.0036 311.5547 0001298 275.2303  84.8401 15.27618713 81446
STARLINK-31945          
1 59870U 24098N   25300.30492191  .00003230  00000+0  12683-3 0  9991
2 59870  43.0008 307.2166 0000877 241.1601 118.9163 15.27587421 81491
STARLINK-31937          
1 59871U 24098P   25300.28243639  .00000389  00000+0  23651-4 0  9990
2 59871  43.0063 304.4564 0001417 263.2069  96.8622 15.27581386 81520
STARLINK-31940          
1 59873U 24098R   25300.29770917  .00000134  00000+0  14404-4 0  9991
2 59873  43.0033 303.7074 0000979 265.6160  94.4579 15.27582980 81534
STARLINK-31933          
1 59874U 24098S   25300.34556884 -.00001468  00000+0 -43831-4 0  9992
2 59874  43.0049 310.9907 0001613 272.0469  88.0198 15.27580064 81455
STARLINK-31936          
1 59875U 24098T   25300.93435986  .00001321  00000+0  57536-4 0  9990
2 59875  43.0037 275.3889 0001478 270.3019  89.7664 15.27571618 81908
STARLINK-31935          
1 59876U 24098U   25300.30202515  .00000808  00000+0  38866-4 0  9996
2 59876  43.0049 311.5240 0001278 255.0812 104.9899 15.27585387 81442
STARLINK-31934          
1 59877U 24098V   25300.39603061  .00001500  00000+0  64044-4 0  9994
2 59877  43.0032 307.0421 0001651 282.8861  77.1806 15.27561879 81509
STARLINK-31943          
1 59878U 24098W   25300.32853392  .00002662  00000+0  10629-3 0  9991
2 59878  43.0068 315.1859 0000760 215.9093 144.1707 15.27559711 80751
STARLINK-31926          
1 59879U 24098X   25300.30727244 -.00002069  00000+0 -65699-4 0  9997
2 59879  43.0014 300.7654 0001197 283.8699  76.2020 15.27573865 81566
STARLINK-31919          
1 59880U 24098Y   25300.02635173  .00000785  00000+0  38045-4 0  9993
2 59880  43.0033 312.8936 0000874 284.9342  75.1413 15.27579294 81403
STARLINK-31974          
1 59885U 24100A   25300.67234052  .00002303  00000+0  93189-4 0  9992
2 59885  43.0016 156.6053 0001274 257.1040 102.9670 15.27577203 80710
STARLINK-31975          
1 59886U 24100B   25300.02104938  .00002427  00000+0  97711-4 0  9993
2 59886  43.0007 160.3159 0001516 269.2939  90.7739 15.27567046 80714
STARLINK-31976          
1 59887U 24100C   25300.31807186  .00003366  00000+0  13173-3 0  9993
2 59887  43.0000 162.5398 0001503 280.2361  79.8322 15.27589784 80714
STARLINK-31965          
1 59888U 24100D   25300.62109247  .00034706  00000+0  12639-2 0  9998
2 59888  42.9979 157.0776 0001176 278.6677  81.4041 15.27603806 80702
STARLINK-31969          
1 59889U 24100E   25300.01640115  .00007332  00000+0  27574-3 0  9996
2 59889  43.0001 156.8249 0001058  22.4448 337.6450 15.27574640 80751
STARLINK-31951          
1 59890U 24100F   25300.65692295  .00000002  00000+0  95993-5 0  9993
2 59890  43.0035 156.4931 0000999 281.3281  78.7458 15.27577692 80715
STARLINK-31949          
1 59891U 24100G   25300.66846529  .00001429  00000+0  61406-4 0  9991
2 59891  43.0019 156.5702 0001084 262.2301  97.8428 15.27590607 80712
